[{"OBJECT_NAME":"DONGPO 03","OBJECT_ID":"2022-098G","EPOCH":"2026-03-09T23:33:34.890048","MEAN_MOTION":15.70958192,"ECCENTRICITY":0.00010558,"INCLINATION":97.5452,"RA_OF_ASC_NODE":197.1326,"ARG_OF_PERICENTER":261.4023,"MEAN_ANOMALY":98.7119,"EPHEMERIS_TYPE":0,"CLASSIFICATION_TYPE":"U","NORAD_CAT_ID":53450,"ELEMENT_SET_NO":999,"REV_AT_EPOCH":19946,"BSTAR":0.0010143925,"MEAN_MOTION_DOT":0.00128253,"MEAN_MOTION_DDOT":0},{"OBJECT_NAME":"STARLINK-11425 [DTC]","OBJECT_ID":"2024-209E","EPOCH":"2026-03-09T05:47:49.085376","MEAN_MOTION":15.69763762,"ECCENTRICITY":0.00012293,"INCLINATION":53.1577,"RA_OF_ASC_NODE":13.7543,"ARG_OF_PERICENTER":88.5603,"MEAN_ANOMALY":271.5555,"EPHEMERIS_TYPE":0,"CLASSIFICATION_TYPE":"U","NORAD_CAT_ID":61943,"ELEMENT_SET_NO":999,"REV_AT_EPOCH":7660,"BSTAR":0.0019673601,"MEAN_MOTION_DOT":0.00245487,"MEAN_MOTION_DDOT":0}]
